CCSDS_OMM_VERS = 2.0
CREATION_DATE  = 
ORIGINATOR     = 

OBJECT_NAME    = COSMOS 1743
OBJECT_ID      = 1986-034A
CENTER_NAME    = EARTH
REF_FRAME      = TEME
TIME_SYSTEM    = UTC
MEAN_ELEMENT_THEORY = SGP/SGP4

EPOCH          = 2025-11-13T02:35:54.962592
MEAN_MOTION    = 15.50178341
ECCENTRICITY   = .00072849
INCLINATION    = 82.5377
RA_OF_ASC_NODE = 195.3182
ARG_OF_PERICENTER = 16.1529
MEAN_ANOMALY   = 343.9953

EPHEMERIS_TYPE = 0
CLASSIFICATION_TYPE = U
NORAD_CAT_ID   = 16719
ELEMENT_SET_NO = 999
REV_AT_EPOCH   = 16214
BSTAR          = .87814677E-3
MEAN_MOTION_DOT = .49816E-3
MEAN_MOTION_DDOT = 0

CCSDS_OMM_VERS = 2.0
CREATION_DATE  = 
ORIGINATOR     = 

OBJECT_NAME    = SL-14 R/B
OBJECT_ID      = 1986-046B
CENTER_NAME    = EARTH
REF_FRAME      = TEME
TIME_SYSTEM    = UTC
MEAN_ELEMENT_THEORY = SGP/SGP4

EPOCH          = 2025-11-13T14:45:06.365664
MEAN_MOTION    = 14.85443913
ECCENTRICITY   = .0021697
INCLINATION    = 82.4831
RA_OF_ASC_NODE = 189.8175
ARG_OF_PERICENTER = 250.7207
MEAN_ANOMALY   = 109.1662

EPHEMERIS_TYPE = 0
CLASSIFICATION_TYPE = U
NORAD_CAT_ID   = 16792
ELEMENT_SET_NO = 999
REV_AT_EPOCH   = 10917
BSTAR          = .12588E-3
MEAN_MOTION_DOT = .1113E-4
MEAN_MOTION_DDOT = 0

CCSDS_OMM_VERS = 2.0
CREATION_DATE  = 
ORIGINATOR     = 

OBJECT_NAME    = SL-14 R/B
OBJECT_ID      = 1986-055B
CENTER_NAME    = EARTH
REF_FRAME      = TEME
TIME_SYSTEM    = UTC
MEAN_ELEMENT_THEORY = SGP/SGP4

EPOCH          = 2025-11-13T17:47:29.664384
MEAN_MOTION    = 14.85486800
ECCENTRICITY   = .0019056
INCLINATION    = 82.5217
RA_OF_ASC_NODE = 235.6166
ARG_OF_PERICENTER = 0.8349
MEAN_ANOMALY   = 21.7016

EPHEMERIS_TYPE = 0
CLASSIFICATION_TYPE = U
NORAD_CAT_ID   = 16882
ELEMENT_SET_NO = 999
REV_AT_EPOCH   = 10215
BSTAR          = .15962E-3
MEAN_MOTION_DOT = .1405E-4
MEAN_MOTION_DDOT = 0

CCSDS_OMM_VERS = 2.0
CREATION_DATE  = 
ORIGINATOR     = 

OBJECT_NAME    = AJISAI (EGS)
OBJECT_ID      = 1986-061A
CENTER_NAME    = EARTH
REF_FRAME      = TEME
TIME_SYSTEM    = UTC
MEAN_ELEMENT_THEORY = SGP/SGP4

EPOCH          = 2025-11-13T20:30:09.132768
MEAN_MOTION    = 12.44514137
ECCENTRICITY   = .001119
INCLINATION    = 50.0085
RA_OF_ASC_NODE = 89.5361
ARG_OF_PERICENTER = 353.1608
MEAN_ANOMALY   = 173.7416

EPHEMERIS_TYPE = 0
CLASSIFICATION_TYPE = U
NORAD_CAT_ID   = 16908
ELEMENT_SET_NO = 999
REV_AT_EPOCH   = 45357
BSTAR          = .23872E-4
MEAN_MOTION_DOT = -.94E-6
MEAN_MOTION_DDOT = 0

CCSDS_OMM_VERS = 2.0
CREATION_DATE  = 
ORIGINATOR     = 

OBJECT_NAME    = COSMOS 1812
OBJECT_ID      = 1987-003A
CENTER_NAME    = EARTH
REF_FRAME      = TEME
TIME_SYSTEM    = UTC
MEAN_ELEMENT_THEORY = SGP/SGP4

EPOCH          = 2025-11-13T10:54:35.788032
MEAN_MOTION    = 15.69593839
ECCENTRICITY   = .0005089
INCLINATION    = 82.4886
RA_OF_ASC_NODE = 323.5710
ARG_OF_PERICENTER = 136.0744
MEAN_ANOMALY   = 224.0923

EPHEMERIS_TYPE = 0
CLASSIFICATION_TYPE = U
NORAD_CAT_ID   = 17295
ELEMENT_SET_NO = 999
REV_AT_EPOCH   = 12605
BSTAR          = .93957E-3
MEAN_MOTION_DOT = .112199E-2
MEAN_MOTION_DDOT = 0

CCSDS_OMM_VERS = 2.0
CREATION_DATE  = 
ORIGINATOR     = 

OBJECT_NAME    = SL-14 R/B
OBJECT_ID      = 1987-024B
CENTER_NAME    = EARTH
REF_FRAME      = TEME
TIME_SYSTEM    = UTC
MEAN_ELEMENT_THEORY = SGP/SGP4

EPOCH          = 2025-11-13T03:38:08.201184
MEAN_MOTION    = 14.85982453
ECCENTRICITY   = .00168612
INCLINATION    = 82.5302
RA_OF_ASC_NODE = 202.2459
ARG_OF_PERICENTER = 288.6855
MEAN_ANOMALY   = 71.2530

EPHEMERIS_TYPE = 0
CLASSIFICATION_TYPE = U
NORAD_CAT_ID   = 17567
ELEMENT_SET_NO = 999
REV_AT_EPOCH   = 7082
BSTAR          = .12908669E-3
MEAN_MOTION_DOT = .1153E-4
MEAN_MOTION_DDOT = 0

CCSDS_OMM_VERS = 2.0
CREATION_DATE  = 
ORIGINATOR     = 

OBJECT_NAME    = COSMOS 1833
OBJECT_ID      = 1987-027A
CENTER_NAME    = EARTH
REF_FRAME      = TEME
TIME_SYSTEM    = UTC
MEAN_ELEMENT_THEORY = SGP/SGP4

EPOCH          = 2025-11-13T09:50:41.603136
MEAN_MOTION    = 14.13019876
ECCENTRICITY   = .00212475
INCLINATION    = 70.9148
RA_OF_ASC_NODE = 210.4322
ARG_OF_PERICENTER = 13.0742
MEAN_ANOMALY   = 347.0925

EPHEMERIS_TYPE = 0
CLASSIFICATION_TYPE = U
NORAD_CAT_ID   = 17589
ELEMENT_SET_NO = 999
REV_AT_EPOCH   = 99388
BSTAR          = -.73965497E-4
MEAN_MOTION_DOT = -.186E-5
MEAN_MOTION_DDOT = 0

CCSDS_OMM_VERS = 2.0
CREATION_DATE  = 
ORIGINATOR     = 

OBJECT_NAME    = SL-16 R/B
OBJECT_ID      = 1987-027B
CENTER_NAME    = EARTH
REF_FRAME      = TEME
TIME_SYSTEM    = UTC
MEAN_ELEMENT_THEORY = SGP/SGP4

EPOCH          = 2025-11-13T13:55:25.309056
MEAN_MOTION    = 14.17147856
ECCENTRICITY   = .00072236
INCLINATION    = 71.0007
RA_OF_ASC_NODE = 161.1628
ARG_OF_PERICENTER = 290.2577
MEAN_ANOMALY   = 69.7770

EPHEMERIS_TYPE = 0
CLASSIFICATION_TYPE = U
NORAD_CAT_ID   = 17590
ELEMENT_SET_NO = 999
REV_AT_EPOCH   = 99893
BSTAR          = .6587059E-5
MEAN_MOTION_DOT = -.35E-6
MEAN_MOTION_DDOT = 0

CCSDS_OMM_VERS = 2.0
CREATION_DATE  = 
ORIGINATOR     = 

OBJECT_NAME    = SL-14 R/B
OBJECT_ID      = 1987-038B
CENTER_NAME    = EARTH
REF_FRAME      = TEME
TIME_SYSTEM    = UTC
MEAN_ELEMENT_THEORY = SGP/SGP4

EPOCH          = 2025-11-13T16:37:50.657088
MEAN_MOTION    = 14.85220467
ECCENTRICITY   = .0019202
INCLINATION    = 82.5037
RA_OF_ASC_NODE = 46.0536
ARG_OF_PERICENTER = 183.7456
MEAN_ANOMALY   = 176.3619

EPHEMERIS_TYPE = 0
CLASSIFICATION_TYPE = U
NORAD_CAT_ID   = 17912
ELEMENT_SET_NO = 999
REV_AT_EPOCH   = 6201
BSTAR          = .14599E-3
MEAN_MOTION_DOT = .1279E-4
MEAN_MOTION_DDOT = 0

CCSDS_OMM_VERS = 2.0
CREATION_DATE  = 
ORIGINATOR     = 

OBJECT_NAME    = COSMOS 1844
OBJECT_ID      = 1987-041A
CENTER_NAME    = EARTH
REF_FRAME      = TEME
TIME_SYSTEM    = UTC
MEAN_ELEMENT_THEORY = SGP/SGP4

EPOCH          = 2025-11-13T20:25:52.701024
MEAN_MOTION    = 14.14523007
ECCENTRICITY   = .0031618
INCLINATION    = 70.8990
RA_OF_ASC_NODE = 278.4998
ARG_OF_PERICENTER = 200.6576
MEAN_ANOMALY   = 159.3270

EPHEMERIS_TYPE = 0
CLASSIFICATION_TYPE = U
NORAD_CAT_ID   = 17973
ELEMENT_SET_NO = 999
REV_AT_EPOCH   = 98720
BSTAR          = .27844E-3
MEAN_MOTION_DOT = .488E-5
MEAN_MOTION_DDOT = 0

CCSDS_OMM_VERS = 2.0
CREATION_DATE  = 
ORIGINATOR     = 

OBJECT_NAME    = SL-14 R/B
OBJECT_ID      = 1987-055B
CENTER_NAME    = EARTH
REF_FRAME      = TEME
TIME_SYSTEM    = UTC
MEAN_ELEMENT_THEORY = SGP/SGP4

EPOCH          = 2025-11-13T19:47:32.092800
MEAN_MOTION    = 14.85476749
ECCENTRICITY   = .0021632
INCLINATION    = 82.4975
RA_OF_ASC_NODE = 98.2369
ARG_OF_PERICENTER = 39.8728
MEAN_ANOMALY   = 320.4072

EPHEMERIS_TYPE = 0
CLASSIFICATION_TYPE = U
NORAD_CAT_ID   = 18153
ELEMENT_SET_NO = 999
REV_AT_EPOCH   = 5273
BSTAR          = .14595E-3
MEAN_MOTION_DOT = .1288E-4
MEAN_MOTION_DDOT = 0

CCSDS_OMM_VERS = 2.0
CREATION_DATE  = 
ORIGINATOR     = 

OBJECT_NAME    = COSMOS 1867
OBJECT_ID      = 1987-060A
CENTER_NAME    = EARTH
REF_FRAME      = TEME
TIME_SYSTEM    = UTC
MEAN_ELEMENT_THEORY = SGP/SGP4

EPOCH          = 2025-11-13T19:40:04.730880
MEAN_MOTION    = 14.31479418
ECCENTRICITY   = .0013707
INCLINATION    = 65.0103
RA_OF_ASC_NODE = 271.1889
ARG_OF_PERICENTER = 268.2205
MEAN_ANOMALY   = 91.7310

EPHEMERIS_TYPE = 0
CLASSIFICATION_TYPE = U
NORAD_CAT_ID   = 18187
ELEMENT_SET_NO = 999
REV_AT_EPOCH   = 335
BSTAR          = .76501E-4
MEAN_MOTION_DOT = .104E-5
MEAN_MOTION_DDOT = 0

